ONEWEB-0700             
1 61606U 24188N   26050.01577262  .00000630  00000+0  17690-2 0  9998
2 61606  87.8775  59.6951 0002458  97.8680 262.2726 13.10370926 67827
ONEWEB-0701             
1 61607U 24188P   26050.03235523 -.00000054  00000+0 -19035-3 0  9990
2 61607  87.8757  59.7994 0002341 108.9382 251.1999 13.10368603 67839
ONEWEB-0702             
1 61608U 24188Q   26049.98843251  .00000023  00000+0  30286-4 0  9992
2 61608  87.8843  44.4802 0002651 102.4560 257.6865 13.11413654 68995
ONEWEB-0704             
1 61609U 24188R   26050.02076609  .00000525  00000+0  14665-2 0  9993
2 61609  87.8772  59.7757 0002712 102.7534 257.3896 13.10370895 67816
ONEWEB-0705             
1 61610U 24188S   26050.02572995  .00000342  00000+0  94228-3 0  9995
2 61610  87.8758  59.7897 0002960  82.3489 277.7974 13.10369345 59984
ONEWEB-0706             
1 61611U 24188T   26050.01079753  .00000706  00000+0  19853-2 0  9993
2 61611  87.8753  59.8069 0002467  95.4616 264.6793 13.10372188 67905
ONEWEB-0707             
1 61612U 24188U   26050.09378925  .00000511  00000+0  14269-2 0  9995
2 61612  87.8763  59.7753 0002413  96.3229 263.8174 13.10369846 67852
ONEWEB-0708             
1 61613U 24188V   26050.03568103 -.00000187  00000+0 -57278-3 0  9998
2 61613  87.8752  59.8163 0002262  77.7131 282.4249 13.10370275 67829
