[{"OBJECT_NAME":"ONEWEB-0700","OBJECT_ID":"2024-188N","EPOCH":"2026-02-19T00:22:42.754368","MEAN_MOTION":13.10370926,"ECCENTRICITY":0.00024583,"INCLINATION":87.8775,"RA_OF_ASC_NODE":59.6951,"ARG_OF_PERICENTER":97.868,"MEAN_ANOMALY":262.2726,"EPHEMERIS_TYPE":0,"CLASSIFICATION_TYPE":"U","NORAD_CAT_ID":61606,"ELEMENT_SET_NO":999,"REV_AT_EPOCH":6782,"BSTAR":0.0017689803,"MEAN_MOTION_DOT":6.3e-6,"MEAN_MOTION_DDOT":0},{"OBJECT_NAME":"ONEWEB-0701","OBJECT_ID":"2024-188P","EPOCH":"2026-02-19T00:46:35.491872","MEAN_MOTION":13.10368603,"ECCENTRICITY":0.00023415,"INCLINATION":87.8757,"RA_OF_ASC_NODE":59.7994,"ARG_OF_PERICENTER":108.9382,"MEAN_ANOMALY":251.1999,"EPHEMERIS_TYPE":0,"CLASSIFICATION_TYPE":"U","NORAD_CAT_ID":61607,"ELEMENT_SET_NO":999,"REV_AT_EPOCH":6783,"BSTAR":-0.00019035227,"MEAN_MOTION_DOT":-5.4e-7,"MEAN_MOTION_DDOT":0},{"OBJECT_NAME":"ONEWEB-0702","OBJECT_ID":"2024-188Q","EPOCH":"2026-02-18T23:43:20.568864","MEAN_MOTION":13.11413654,"ECCENTRICITY":0.00026512,"INCLINATION":87.8843,"RA_OF_ASC_NODE":44.4802,"ARG_OF_PERICENTER":102.456,"MEAN_ANOMALY":257.6865,"EPHEMERIS_TYPE":0,"CLASSIFICATION_TYPE":"U","NORAD_CAT_ID":61608,"ELEMENT_SET_NO":999,"REV_AT_EPOCH":6899,"BSTAR":3.0286166e-5,"MEAN_MOTION_DOT":2.3e-7,"MEAN_MOTION_DDOT":0},{"OBJECT_NAME":"ONEWEB-0704","OBJECT_ID":"2024-188R","EPOCH":"2026-02-19T00:29:54.190176","MEAN_MOTION":13.10370895,"ECCENTRICITY":0.00027122,"INCLINATION":87.8772,"RA_OF_ASC_NODE":59.7757,"ARG_OF_PERICENTER":102.7534,"MEAN_ANOMALY":257.3896,"EPHEMERIS_TYPE":0,"CLASSIFICATION_TYPE":"U","NORAD_CAT_ID":61609,"ELEMENT_SET_NO":999,"REV_AT_EPOCH":6781,"BSTAR":0.00146646,"MEAN_MOTION_DOT":5.25e-6,"MEAN_MOTION_DDOT":0},{"OBJECT_NAME":"ONEWEB-0705","OBJECT_ID":"2024-188S","EPOCH":"2026-02-19T00:37:03.067680","MEAN_MOTION":13.10369345,"ECCENTRICITY":0.00029609,"INCLINATION":87.8758,"RA_OF_ASC_NODE":59.7897,"ARG_OF_PERICENTER":82.3489,"MEAN_ANOMALY":277.7974,"EPHEMERIS_TYPE":0,"CLASSIFICATION_TYPE":"U","NORAD_CAT_ID":61610,"ELEMENT_SET_NO":999,"REV_AT_EPOCH":5998,"BSTAR":0.00094227583,"MEAN_MOTION_DOT":3.42e-6,"MEAN_MOTION_DDOT":0},{"OBJECT_NAME":"ONEWEB-0706","OBJECT_ID":"2024-188T","EPOCH":"2026-02-19T00:15:32.906592","MEAN_MOTION":13.10372188,"ECCENTRICITY":0.00024679,"INCLINATION":87.8753,"RA_OF_ASC_NODE":59.8069,"ARG_OF_PERICENTER":95.4616,"MEAN_ANOMALY":264.6793,"EPHEMERIS_TYPE":0,"CLASSIFICATION_TYPE":"U","NORAD_CAT_ID":61611,"ELEMENT_SET_NO":999,"REV_AT_EPOCH":6790,"BSTAR":0.0019852573,"MEAN_MOTION_DOT":7.06e-6,"MEAN_MOTION_DDOT":0},{"OBJECT_NAME":"ONEWEB-0707","OBJECT_ID":"2024-188U","EPOCH":"2026-02-19T02:15:03.391200","MEAN_MOTION":13.10369846,"ECCENTRICITY":0.00024139,"INCLINATION":87.8763,"RA_OF_ASC_NODE":59.7753,"ARG_OF_PERICENTER":96.3229,"MEAN_ANOMALY":263.8174,"EPHEMERIS_TYPE":0,"CLASSIFICATION_TYPE":"U","NORAD_CAT_ID":61612,"ELEMENT_SET_NO":999,"REV_AT_EPOCH":6785,"BSTAR":0.0014269264,"MEAN_MOTION_DOT":5.11e-6,"MEAN_MOTION_DDOT":0},{"OBJECT_NAME":"ONEWEB-0708","OBJECT_ID":"2024-188V","EPOCH":"2026-02-19T00:51:22.840992","MEAN_MOTION":13.10370275,"ECCENTRICITY":0.00022622,"INCLINATION":87.8752,"RA_OF_ASC_NODE":59.8163,"ARG_OF_PERICENTER":77.7131,"MEAN_ANOMALY":282.4249,"EPHEMERIS_TYPE":0,"CLASSIFICATION_TYPE":"U","NORAD_CAT_ID":61613,"ELEMENT_SET_NO":999,"REV_AT_EPOCH":6782,"BSTAR":-0.00057278223,"MEAN_MOTION_DOT":-1.87e-6,"MEAN_MOTION_DDOT":0}]
